{
 "generated_at": "2026-06-20T08:22:11Z",
 "sources": [
  {
   "name": "CelesTrak",
   "url": "https://celestrak.org/NORAD/elements/",
   "license": "frei verfügbar; Attribution. Ursprünglich USSPACECOM/Space-Track."
  },
  {
   "name": "GCAT (J. McDowell, planet4589.org)",
   "url": "https://planet4589.org/space/gcat/",
   "license": "CC-BY 4.0"
  }
 ],
 "satellites": [
  {
   "norad": 66752,
   "name": "ICEYE-X59",
   "intl": "2025-276CQ",
   "group": "sar",
   "gcat": {
    "class": "B",
    "category": "IMG-R",
    "owner": "ELKED",
    "state": "GR"
   },
   "omm": {
    "OBJECT_NAME": "ICEYE-X59",
    "OBJECT_ID": "2025-276CQ",
    "EPOCH": "2026-06-19T16:21:29.539296",
    "MEAN_MOTION": 15.01528283,
    "ECCENTRICITY": 0.0001639,
    "INCLINATION": 97.4319,
    "RA_OF_ASC_NODE": 241.8707,
    "ARG_OF_PERICENTER": 88.2056,
    "MEAN_ANOMALY": 271.9356,
    "EPHEMERIS_TYPE": 0,
    "CLASSIFICATION_TYPE": "U",
    "NORAD_CAT_ID": 66752,
    "ELEMENT_SET_NO": 999,
    "REV_AT_EPOCH": 3064,
    "BSTAR": 0.00030028,
    "MEAN_MOTION_DOT": 0.0000383,
    "MEAN_MOTION_DDOT": 0
   }
  },
  {
   "norad": 46497,
   "name": "ICEYE-X6",
   "intl": "2020-068M",
   "group": "sar",
   "gcat": {
    "class": "B",
    "category": "IMG-R",
    "owner": "ICEYE",
    "state": "FI"
   },
   "omm": {
    "OBJECT_NAME": "ICEYE-X6",
    "OBJECT_ID": "2020-068M",
    "EPOCH": "2026-06-19T20:26:20.869152",
    "MEAN_MOTION": 15.04538183,
    "ECCENTRICITY": 0.0008936,
    "INCLINATION": 98.0982,
    "RA_OF_ASC_NODE": 164.6504,
    "ARG_OF_PERICENTER": 83.7243,
    "MEAN_ANOMALY": 276.4999,
    "EPHEMERIS_TYPE": 0,
    "CLASSIFICATION_TYPE": "U",
    "NORAD_CAT_ID": 46497,
    "ELEMENT_SET_NO": 999,
    "REV_AT_EPOCH": 31363,
    "BSTAR": 0.00017739,
    "MEAN_MOTION_DOT": 0.0000242,
    "MEAN_MOTION_DDOT": 0
   }
  },
  {
   "norad": 66753,
   "name": "ICEYE-X60",
   "intl": "2025-276CR",
   "group": "sar",
   "gcat": {
    "class": "B",
    "category": "IMG-R",
    "owner": "ELKED",
    "state": "GR"
   },
   "omm": {
    "OBJECT_NAME": "ICEYE-X60",
    "OBJECT_ID": "2025-276CR",
    "EPOCH": "2026-06-19T16:59:30.207264",
    "MEAN_MOTION": 15.11270572,
    "ECCENTRICITY": 0.0003058,
    "INCLINATION": 97.4192,
    "RA_OF_ASC_NODE": 243.3027,
    "ARG_OF_PERICENTER": 50.6625,
    "MEAN_ANOMALY": 309.4876,
    "EPHEMERIS_TYPE": 0,
    "CLASSIFICATION_TYPE": "U",
    "NORAD_CAT_ID": 66753,
    "ELEMENT_SET_NO": 999,
    "REV_AT_EPOCH": 3074,
    "BSTAR": 0.00027179,
    "MEAN_MOTION_DOT": 0.00004511,
    "MEAN_MOTION_DDOT": 0
   }
  },
  {
   "norad": 66754,
   "name": "ICEYE-X61",
   "intl": "2025-276CS",
   "group": "sar",
   "gcat": {
    "class": "B",
    "category": "IMG-R",
    "owner": "ICEYE",
    "state": "FI"
   },
   "omm": {
    "OBJECT_NAME": "ICEYE-X61",
    "OBJECT_ID": "2025-276CS",
    "EPOCH": "2026-06-19T17:31:52.887072",
    "MEAN_MOTION": 15.18425421,
    "ECCENTRICITY": 0.0002617,
    "INCLINATION": 97.4198,
    "RA_OF_ASC_NODE": 244.1734,
    "ARG_OF_PERICENTER": 1.0274,
    "MEAN_ANOMALY": 359.0965,
    "EPHEMERIS_TYPE": 0,
    "CLASSIFICATION_TYPE": "U",
    "NORAD_CAT_ID": 66754,
    "ELEMENT_SET_NO": 999,
    "REV_AT_EPOCH": 3080,
    "BSTAR": 0.00012799,
    "MEAN_MOTION_DOT": 0.00002567,
    "MEAN_MOTION_DDOT": 0
   }
  },
  {
   "norad": 66755,
   "name": "ICEYE-X62",
   "intl": "2025-276CT",
   "group": "sar",
   "gcat": {
    "class": "B",
    "category": "IMG-R",
    "owner": "MON/WKL",
    "state": "PL"
   },
   "omm": {
    "OBJECT_NAME": "ICEYE-X62",
    "OBJECT_ID": "2025-276CT",
    "EPOCH": "2026-06-19T17:08:07.943712",
    "MEAN_MOTION": 15.10036065,
    "ECCENTRICITY": 0.0002604,
    "INCLINATION": 97.4202,
    "RA_OF_ASC_NODE": 242.8431,
    "ARG_OF_PERICENTER": 31.7124,
    "MEAN_ANOMALY": 328.4262,
    "EPHEMERIS_TYPE": 0,
    "CLASSIFICATION_TYPE": "U",
    "NORAD_CAT_ID": 66755,
    "ELEMENT_SET_NO": 999,
    "REV_AT_EPOCH": 3071,
    "BSTAR": 0.000091118,
    "MEAN_MOTION_DOT": 0.0000142,
    "MEAN_MOTION_DDOT": 0
   }
  },
  {
   "norad": 67372,
   "name": "ICEYE-X63",
   "intl": "2026-004K",
   "group": "sar",
   "gcat": {
    "class": "B",
    "category": "IMG-R",
    "owner": "ICEYE",
    "state": "FI"
   },
   "omm": {
    "OBJECT_NAME": "ICEYE-X63",
    "OBJECT_ID": "2026-004K",
    "EPOCH": "2026-06-19T13:39:52.542432",
    "MEAN_MOTION": 14.88304514,
    "ECCENTRICITY": 0.00056679,
    "INCLINATION": 97.8,
    "RA_OF_ASC_NODE": 169.1715,
    "ARG_OF_PERICENTER": 113.704,
    "MEAN_ANOMALY": 246.4772,
    "EPHEMERIS_TYPE": 0,
    "CLASSIFICATION_TYPE": "U",
    "NORAD_CAT_ID": 67372,
    "ELEMENT_SET_NO": 999,
    "REV_AT_EPOCH": 2365,
    "BSTAR": 0.000080696487,
    "MEAN_MOTION_DOT": 0.00000692,
    "MEAN_MOTION_DDOT": 0
   }
  },
  {
   "norad": 67373,
   "name": "ICEYE-X64",
   "intl": "2026-004L",
   "group": "sar",
   "gcat": {
    "class": "D",
    "category": "IMG-R",
    "owner": "PUOL",
    "state": "FI"
   },
   "omm": {
    "OBJECT_NAME": "ICEYE-X64",
    "OBJECT_ID": "2026-004L",
    "EPOCH": "2026-06-19T13:04:02.680608",
    "MEAN_MOTION": 14.87926846,
    "ECCENTRICITY": 0.00073038,
    "INCLINATION": 97.8015,
    "RA_OF_ASC_NODE": 169.0767,
    "ARG_OF_PERICENTER": 120.7381,
    "MEAN_ANOMALY": 239.4556,
    "EPHEMERIS_TYPE": 0,
    "CLASSIFICATION_TYPE": "U",
    "NORAD_CAT_ID": 67373,
    "ELEMENT_SET_NO": 999,
    "REV_AT_EPOCH": 2364,
    "BSTAR": 0.00011110337,
    "MEAN_MOTION_DOT": 0.00000964,
    "MEAN_MOTION_DDOT": 0
   }
  },
  {
   "norad": 66300,
   "name": "ICEYE-X65",
   "intl": "2025-248H",
   "group": "sar",
   "gcat": {
    "class": "B",
    "category": "IMG-R",
    "owner": "SP42",
    "state": "UAE"
   },
   "omm": {
    "OBJECT_NAME": "ICEYE-X65",
    "OBJECT_ID": "2025-248H",
    "EPOCH": "2026-06-19T04:51:08.160192",
    "MEAN_MOTION": 15.07758198,
    "ECCENTRICITY": 0.00047759,
    "INCLINATION": 45.4048,
    "RA_OF_ASC_NODE": 123.5755,
    "ARG_OF_PERICENTER": 33.0844,
    "MEAN_ANOMALY": 327.0336,
    "EPHEMERIS_TYPE": 0,
    "CLASSIFICATION_TYPE": "U",
    "NORAD_CAT_ID": 66300,
    "ELEMENT_SET_NO": 999,
    "REV_AT_EPOCH": 3582,
    "BSTAR": 0.00010682171,
    "MEAN_MOTION_DOT": 0.0000141,
    "MEAN_MOTION_DDOT": 0
   }
  },
  {
   "norad": 66301,
   "name": "ICEYE-X66",
   "intl": "2025-248J",
   "group": "sar",
   "gcat": {
    "class": "B",
    "category": "IMG-R",
    "owner": "SP42",
    "state": "UAE"
   },
   "omm": {
    "OBJECT_NAME": "ICEYE-X66",
    "OBJECT_ID": "2025-248J",
    "EPOCH": "2026-06-19T05:18:44.128512",
    "MEAN_MOTION": 15.08998467,
    "ECCENTRICITY": 0.00045746,
    "INCLINATION": 45.4016,
    "RA_OF_ASC_NODE": 122.8266,
    "ARG_OF_PERICENTER": 26.1579,
    "MEAN_ANOMALY": 333.9533,
    "EPHEMERIS_TYPE": 0,
    "CLASSIFICATION_TYPE": "U",
    "NORAD_CAT_ID": 66301,
    "ELEMENT_SET_NO": 999,
    "REV_AT_EPOCH": 3581,
    "BSTAR": 0.00011162314,
    "MEAN_MOTION_DOT": 0.00001541,
    "MEAN_MOTION_DDOT": 0
   }
  },
  {
   "norad": 66302,
   "name": "ICEYE-X67",
   "intl": "2025-248K",
   "group": "sar",
   "gcat": {
    "class": "B",
    "category": "IMG-R",
    "owner": "SP42",
    "state": "UAE"
   },
   "omm": {
    "OBJECT_NAME": "ICEYE-X67",
    "OBJECT_ID": "2025-248K",
    "EPOCH": "2026-06-19T13:50:28.705632",
    "MEAN_MOTION": 15.08977063,
    "ECCENTRICITY": 0.00059758,
    "INCLINATION": 45.4054,
    "RA_OF_ASC_NODE": 120.5206,
    "ARG_OF_PERICENTER": 35.2836,
    "MEAN_ANOMALY": 324.8441,
    "EPHEMERIS_TYPE": 0,
    "CLASSIFICATION_TYPE": "U",
    "NORAD_CAT_ID": 66302,
    "ELEMENT_SET_NO": 999,
    "REV_AT_EPOCH": 3588,
    "BSTAR": 0.0001092865,
    "MEAN_MOTION_DOT": 0.00001502,
    "MEAN_MOTION_DDOT": 0
   }
  }
 ]
}
