ICEYE-X6                
1 46497U 20068M   26170.85163043  .00002420  00000+0  17739-3 0  9999
2 46497  98.0982 164.6504 0008936  83.7243 276.4999 15.04538183313637
ICEYE-X65               
1 66300U 25248H   26170.20217778  .00001410  00000+0  10682-3 0  9991
2 66300  45.4048 123.5755 0004775  33.0844 327.0336 15.07758198 35828
ICEYE-X66               
1 66301U 25248J   26170.22134408  .00001541  00000+0  11162-3 0  9991
2 66301  45.4016 122.8266 0004574  26.1579 333.9533 15.08998467 35818
ICEYE-X67               
1 66302U 25248K   26170.57672113  .00001502  00000+0  10929-3 0  9997
2 66302  45.4054 120.5206 0005975  35.2836 324.8441 15.08977063 35886
ICEYE-X59               
1 66752U 25276CQ  26170.68159189  .00003830  00000+0  30028-3 0  9990
2 66752  97.4319 241.8707 0001639  88.2056 271.9356 15.01528283 30649
ICEYE-X60               
1 66753U 25276CR  26170.70798851  .00004511  00000+0  27179-3 0  9999
2 66753  97.4192 243.3027 0003058  50.6625 309.4876 15.11270572 30744
ICEYE-X61               
1 66754U 25276CS  26170.73047323  .00002567  00000+0  12799-3 0  9995
2 66754  97.4198 244.1734 0002617   1.0274 359.0965 15.18425421 30804
ICEYE-X62               
1 66755U 25276CT  26170.71398083  .00001420  00000+0  91118-4 0  9996
2 66755  97.4202 242.8431 0002604  31.7124 328.4262 15.10036065 30714
ICEYE-X63               
1 67372U 26004K   26170.56935813  .00000692  00000+0  80696-4 0  9992
2 67372  97.8000 169.1715 0005667 113.7040 246.4772 14.88304514 23657
ICEYE-X64               
1 67373U 26004L   26170.54447547  .00000964  00000+0  11110-3 0  9999
2 67373  97.8015 169.0767 0007303 120.7381 239.4556 14.87926846 23643
